OBJECT_NAME,OBJECT_ID,EPOCH,MEAN_MOTION,ECCENTRICITY,INCLINATION,RA_OF_ASC_NODE,ARG_OF_PERICENTER,MEAN_ANOMALY,EPHEMERIS_TYPE,CLASSIFICATION_TYPE,NORAD_CAT_ID,ELEMENT_SET_NO,REV_AT_EPOCH,BSTAR,MEAN_MOTION_DOT,MEAN_MOTION_DDOT
INNOSAT 3 (RS92S0),2025-155U,2026-06-26T21:41:01.777056,15.44504212,.0007767,97.4480,149.6359,129.1392,231.0548,0,U,64894,999,8246,.88692078E-3,.41233E-3,0
KNACKSAT-2,1998-067XZ,2026-06-26T10:40:36.323040,15.60782463,.0008675,51.6280,247.8833,257.0459,102.9566,0,U,67683,999,2172,.58452E-3,.49509E-3,0
