INNOSAT 3 (RS92S0)      
1 64894U 25155U   26177.90349279  .00041233  00000+0  88692-3 0  9993
2 64894  97.4480 149.6359 0007767 129.1392 231.0548 15.44504212 82467
KNACKSAT-2              
1 67683U 98067XZ  26177.44486485  .00049509  00000+0  58452-3 0  9999
2 67683  51.6280 247.8833 0008675 257.0459 102.9566 15.60782463 21720
